IRIDIUM 36              
1 24967U 97056C   24234.72279717  .00001283  00000+0  42688-3 0  9996
2 24967  86.3959 298.7822 0002037  93.6147 266.5284 14.36974545409206
IRIDIUM 39              
1 25042U 97069D   24234.37829173  .00002651  00000+0  70450-3 0  9991
2 25042  86.3971 339.6532 0016813 222.1617 137.8294 14.48214953405554
IRIDIUM 38              
1 25043U 97069E   24234.36173480  .00001735  00000+0  57399-3 0  9993
2 25043  86.4005 359.2764 0002807  52.0022 308.1429 14.37438150402877
IRIDIUM 42              
1 25077U 97077A   24234.42236801  .00001593  00000+0  54496-3 0  9990
2 25077  86.4005   5.0465 0002396  76.8014 283.3450 14.35721232398175
IRIDIUM 44              
1 25078U 97077B   24234.34771910  .00001505  00000+0  47620-3 0  9991
2 25078  86.4007 347.8182 0000751  35.2516 324.8732 14.39569518400551
IRIDIUM 45              
1 25104U 97082A   24234.40165458  .00037596  00000+0  19655-2 0  9993
2 25104  86.3749 191.5914 0151477   3.3092 356.9106 15.06231173406664
IRIDIUM 24              
1 25105U 97082B   24234.42464595  .00001818  00000+0  55542-3 0  9994
2 25105  86.3934 207.2582 0011313   0.4183 359.7024 14.41365621400028
IRIDIUM 51              
1 25262U 98018A   24234.39607717  .00040215  00000+0  17151-2 0  9996
2 25262  86.3964 201.1911 0132204 302.4859  56.3657 15.15075966401274
